[{"OBJECT_NAME":"STARLINK-35578","OBJECT_ID":"2025-240Y","EPOCH":"2026-03-09T23:32:30.283584","MEAN_MOTION":15.30218173,"ECCENTRICITY":0.00017757,"INCLINATION":53.1598,"RA_OF_ASC_NODE":61.4029,"ARG_OF_PERICENTER":94.6206,"MEAN_ANOMALY":265.4998,"EPHEMERIS_TYPE":0,"CLASSIFICATION_TYPE":"U","NORAD_CAT_ID":66168,"ELEMENT_SET_NO":999,"REV_AT_EPOCH":2203,"BSTAR":0.00089186102,"MEAN_MOTION_DOT":0.00026163,"MEAN_MOTION_DDOT":0},{"OBJECT_NAME":"CERISE","OBJECT_ID":"1995-033B","EPOCH":"2026-03-09T23:11:27.589056","MEAN_MOTION":15.32047731,"ECCENTRICITY":0.00057118,"INCLINATION":98.325,"RA_OF_ASC_NODE":273.5192,"ARG_OF_PERICENTER":211.8754,"MEAN_ANOMALY":148.214,"EPHEMERIS_TYPE":0,"CLASSIFICATION_TYPE":"U","NORAD_CAT_ID":23606,"ELEMENT_SET_NO":999,"REV_AT_EPOCH":66468,"BSTAR":0.00062940675,"MEAN_MOTION_DOT":0.00019422,"MEAN_MOTION_DDOT":0}]
